{
  "links" : {
    "next" : "https://api.nasa.gov/neo/rest/v1/feed?start_date=2003-01-16&end_date=2003-01-16&detailed=true&api_key=t0TVs3DtDT2H8Oy2Zy8m2eVrNsAVKAexjcZXUckd",
    "prev" : "https://api.nasa.gov/neo/rest/v1/feed?start_date=2003-01-14&end_date=2003-01-14&detailed=true&api_key=t0TVs3DtDT2H8Oy2Zy8m2eVrNsAVKAexjcZXUckd",
    "self" : "https://api.nasa.gov/neo/rest/v1/feed?start_date=2003-01-15&end_date=2003-01-15&detailed=true&api_key=t0TVs3DtDT2H8Oy2Zy8m2eVrNsAVKAexjcZXUckd"
  },
  "element_count" : 5,
  "near_earth_objects" : {
    "2003-01-15" : [ {
      "links" : {
        "self" : "https://api.nasa.gov/neo/rest/v1/neo/3739413?api_key=t0TVs3DtDT2H8Oy2Zy8m2eVrNsAVKAexjcZXUckd"
      },
      "neo_reference_id" : "3739413",
      "name" : "(2016 AU65)",
      "nasa_jpl_url" : "http://ssd.jpl.nasa.gov/sbdb.cgi?sstr=3739413",
      "absolute_magnitude_h" : 22.9,
      "estimated_diameter" : {
        "kilometers" : {
          "estimated_diameter_min" : 0.0699125232,
          "estimated_diameter_max" : 0.1563291544
        },
        "meters" : {
          "estimated_diameter_min" : 69.9125232246,
          "estimated_diameter_max" : 156.3291544087
        },
        "miles" : {
          "estimated_diameter_min" : 0.0434416145,
          "estimated_diameter_max" : 0.097138403
        },
        "feet" : {
          "estimated_diameter_min" : 229.3718026961,
          "estimated_diameter_max" : 512.8909429502
        }
      },
      "is_potentially_hazardous_asteroid" : false,
      "close_approach_data" : [ {
        "close_approach_date" : "2003-01-15",
        "epoch_date_close_approach" : 1042617600000,
        "relative_velocity" : {
          "kilometers_per_second" : "33.0369844549",
          "kilometers_per_hour" : "118933.1440375608",
          "miles_per_hour" : "73900.4305271166"
        },
        "miss_distance" : {
          "astronomical" : "0.4964788364",
          "lunar" : "193.1302642822",
          "kilometers" : "74272176",
          "miles" : "46150592"
        },
        "orbiting_body" : "Earth"
      } ],
      "orbital_data" : {
        "orbit_id" : "10",
        "orbit_determination_date" : "2017-04-06 08:29:19",
        "orbit_uncertainty" : "6",
        "minimum_orbit_intersection" : ".0187748",
        "jupiter_tisserand_invariant" : "7.076",
        "epoch_osculation" : "2458000.5",
        "eccentricity" : ".5617512822599331",
        "semi_major_axis" : ".8099258124717031",
        "inclination" : "3.744017549389499",
        "ascending_node_longitude" : "295.6919573997513",
        "orbital_period" : "266.2356980837815",
        "perihelion_distance" : ".3549489487803058",
        "perihelion_argument" : "338.0747994370951",
        "aphelion_distance" : "1.264902676163101",
        "perihelion_time" : "2458024.878160618130",
        "mean_anomaly" : "327.0362093224444",
        "mean_motion" : "1.352185310201008",
        "equinox" : "J2000"
      }
    }, {
      "links" : {
        "self" : "https://api.nasa.gov/neo/rest/v1/neo/3766361?api_key=t0TVs3DtDT2H8Oy2Zy8m2eVrNsAVKAexjcZXUckd"
      },
      "neo_reference_id" : "3766361",
      "name" : "(2017 AG5)",
      "nasa_jpl_url" : "http://ssd.jpl.nasa.gov/sbdb.cgi?sstr=3766361",
      "absolute_magnitude_h" : 22.5,
      "estimated_diameter" : {
        "kilometers" : {
          "estimated_diameter_min" : 0.0840533402,
          "estimated_diameter_max" : 0.1879489824
        },
        "meters" : {
          "estimated_diameter_min" : 84.0533402073,
          "estimated_diameter_max" : 187.9489824394
        },
        "miles" : {
          "estimated_diameter_min" : 0.0522283081,
          "estimated_diameter_max" : 0.1167860472
        },
        "feet" : {
          "estimated_diameter_min" : 275.7655606856,
          "estimated_diameter_max" : 616.6305395464
        }
      },
      "is_potentially_hazardous_asteroid" : false,
      "close_approach_data" : [ {
        "close_approach_date" : "2003-01-15",
        "epoch_date_close_approach" : 1042617600000,
        "relative_velocity" : {
          "kilometers_per_second" : "14.9578959426",
          "kilometers_per_hour" : "53848.425393445",
          "miles_per_hour" : "33459.3174340547"
        },
        "miss_distance" : {
          "astronomical" : "0.2207542387",
          "lunar" : "85.8733978271",
          "kilometers" : "33024364",
          "miles" : "20520388"
        },
        "orbiting_body" : "Earth"
      } ],
      "orbital_data" : {
        "orbit_id" : "24",
        "orbit_determination_date" : "2017-04-06 08:21:07",
        "orbit_uncertainty" : "5",
        "minimum_orbit_intersection" : ".00229126",
        "jupiter_tisserand_invariant" : "4.816",
        "epoch_osculation" : "2458000.5",
        "eccentricity" : ".3477983396351377",
        "semi_major_axis" : "1.347116740003786",
        "inclination" : "1.707604478026161",
        "ascending_node_longitude" : "93.20029444578172",
        "orbital_period" : "571.0922627229985",
        "perihelion_distance" : ".8785917745357699",
        "perihelion_argument" : "310.7766542594466",
        "aphelion_distance" : "1.815641705471802",
        "perihelion_time" : "2458281.791365456365",
        "mean_anomaly" : "182.6820810328354",
        "mean_motion" : ".6303709986955536",
        "equinox" : "J2000"
      }
    } ]
  }
}